{
    "links": {
        "self": "http://www.neowsapp.com/rest/v1/neo/3838265?api_key=iIulBulltgU6a56xZRHN4H3l9WmuAYTsLGpBGhQ2"
    },
    "id": "3838265",
    "neo_reference_id": "3838265",
    "name": "(2019 CJ5)",
    "designation": "2019 CJ5",
    "nasa_jpl_url": "http://ssd.jpl.nasa.gov/sbdb.cgi?sstr=3838265",
    "absolute_magnitude_h": 24.7,
    "estimated_diameter": {
        "kilometers": {
            "estimated_diameter_min": 0.0305179233,
            "estimated_diameter_max": 0.0682401509
        },
        "meters": {
            "estimated_diameter_min": 30.5179232594,
            "estimated_diameter_max": 68.2401509401
        },
        "miles": {
            "estimated_diameter_min": 0.0189629525,
            "estimated_diameter_max": 0.0424024508
        },
        "feet": {
            "estimated_diameter_min": 100.1244233463,
            "estimated_diameter_max": 223.8850168104
        }
    },
    "is_potentially_hazardous_asteroid": false,
    "close_approach_data": [
        {
            "close_approach_date": "2019-02-12",
            "close_approach_date_full": "2019-Feb-12 07:41",
            "epoch_date_close_approach": 1549957260000,
            "relative_velocity": {
                "kilometers_per_second": "12.7371354561",
                "kilometers_per_hour": "45853.6876418196",
                "miles_per_hour": "28491.6983016629"
            },
            "miss_distance": {
                "astronomical": "0.1346658564",
                "lunar": "52.3850181396",
                "kilometers": "20145725.279165868",
                "miles": "12517973.2223422584"
            },
            "orbiting_body": "Earth"
        }
    ],
    "orbital_data": {
        "orbit_id": "1",
        "orbit_determination_date": "2019-02-12 22:42:58",
        "first_observation_date": "2019-02-11",
        "last_observation_date": "2019-02-12",
        "data_arc_in_days": 1,
        "observations_used": 15,
        "orbit_uncertainty": "9",
        "minimum_orbit_intersection": ".134611",
        "jupiter_tisserand_invariant": "4.973",
        "epoch_osculation": "2458526.5",
        "eccentricity": ".1235103620154936",
        "semi_major_axis": "1.275956582327699",
        "inclination": "24.43526495219096",
        "ascending_node_longitude": "321.6094992227219",
        "orbital_period": "526.4441109894906",
        "perihelion_distance": "1.118362722928353",
        "perihelion_argument": "193.84185673",
        "aphelion_distance": "1.433550441727045",
        "perihelion_time": "2458540.600238276356",
        "mean_anomaly": "350.3577878951912",
        "mean_motion": ".6838332740076689",
        "equinox": "J2000",
        "orbit_class": {
            "orbit_class_type": "AMO",
            "orbit_class_description": "Near-Earth asteroid orbits similar to that of 1221 Amor",
            "orbit_class_range": "1.017 AU < q (perihelion) < 1.3 AU"
        }
    },
    "is_sentry_object": false
}